{
  "type": "FeatureCollection",
  "features": [
    {
      "type": "Feature",
      "properties": {
        "norad_id": 67089,
        "name": "STARLINK-35763",
        "group": "last-30-days",
        "lat": 69.9187696647506,
        "lon": -64.26961576995113,
        "alt_km": 337.98736733272654,
        "timestamp": "2025-12-26T14:28:46.399285+00:00",
        "meta_object_name": "STARLINK-35763",
        "meta_object_id": "2025-298Q",
        "meta_epoch": "2025-12-26T06:00:02.999808",
        "meta_mean_motion": 15.76949125,
        "meta_eccentricity": 0.00036415,
        "meta_inclination": 69.9969,
        "meta_ra_of_asc_node": 211.5262,
        "meta_arg_of_pericenter": 271.6298,
        "meta_mean_anomaly": 332.6483,
        "meta_ephemeris_type": 0,
        "meta_classification_type": "U",
        "meta_norad_cat_id": 67089,
        "meta_element_set_no": 999,
        "meta_rev_at_epoch": 314,
        "meta_bstar": -0.012454557,
        "meta_mean_motion_dot": -0.01780546,
        "meta_mean_motion_ddot": 0,
        "tle_line1": "1 67089U 25298Q   25360.25003472 -.01780546  00000+0 -12455-1 0  9995",
        "tle_line2": "2 67089  69.9969 211.5262 0003641 271.6298 332.6483 15.76949125  3144"
      },
      "geometry": {
        "type": "Point",
        "coordinates": [
          -64.26961576995113,
          69.9187696647506
        ]
      }
    },
    {
      "type": "Feature",
      "properties": {
        "norad_id": 67090,
        "name": "STARLINK-36060",
        "group": "last-30-days",
        "lat": 69.9817664102902,
        "lon": -58.80900231206958,
        "alt_km": 337.93692869280676,
        "timestamp": "2025-12-26T14:28:46.399296+00:00",
        "meta_object_name": "STARLINK-36060",
        "meta_object_id": "2025-298R",
        "meta_epoch": "2025-12-26T06:00:02.999808",
        "meta_mean_motion": 15.7695053,
        "meta_eccentricity": 0.0003585,
        "meta_inclination": 69.9965,
        "meta_ra_of_asc_node": 211.5236,
        "meta_arg_of_pericenter": 272.581,
        "meta_mean_anomaly": 333.565,
        "meta_ephemeris_type": 0,
        "meta_classification_type": "U",
        "meta_norad_cat_id": 67090,
        "meta_element_set_no": 999,
        "meta_rev_at_epoch": 309,
        "meta_bstar": -0.012443353,
        "meta_mean_motion_dot": -0.01779177,
        "meta_mean_motion_ddot": 0,
        "tle_line1": "1 67090U 25298R   25360.25003472 -.01779177  00000+0 -12443-1 0  9992",
        "tle_line2": "2 67090  69.9965 211.5236 0003585 272.5810 333.5650 15.76950530  3092"
      },
      "geometry": {
        "type": "Point",
        "coordinates": [
          -58.80900231206958,
          69.9817664102902
        ]
      }
    },
    {
      "type": "Feature",
      "properties": {
        "norad_id": 67091,
        "name": "STARLINK-36097",
        "group": "last-30-days",
        "lat": 69.85497244495295,
        "lon": -52.73239533102737,
        "alt_km": 338.006693269107,
        "timestamp": "2025-12-26T14:28:46.399307+00:00",
        "meta_object_name": "STARLINK-36097",
        "meta_object_id": "2025-298S",
        "meta_epoch": "2025-12-26T06:00:02.999808",
        "meta_mean_motion": 15.76944489,
        "meta_eccentricity": 0.00036463,
        "meta_inclination": 69.9969,
        "meta_ra_of_asc_node": 211.5214,
        "meta_arg_of_pericenter": 267.759,
        "meta_mean_anomaly": 340.4885,
        "meta_ephemeris_type": 0,
        "meta_classification_type": "U",
        "meta_norad_cat_id": 67091,
        "meta_element_set_no": 999,
        "meta_rev_at_epoch": 314,
        "meta_bstar": -0.012481348,
        "meta_mean_motion_dot": -0.01783594,
        "meta_mean_motion_ddot": 0,
        "tle_line1": "1 67091U 25298S   25360.25003472 -.01783594  00000+0 -12481-1 0  9993",
        "tle_line2": "2 67091  69.9969 211.5214 0003646 267.7590 340.4885 15.76944489  3141"
      },
      "geometry": {
        "type": "Point",
        "coordinates": [
          -52.73239533102737,
          69.85497244495295
        ]
      }
    },
    {
      "type": "Feature",
      "properties": {
        "norad_id": 67092,
        "name": "STARLINK-35792",
        "group": "last-30-days",
        "lat": 69.5656000865545,
        "lon": -47.38252345695062,
        "alt_km": 338.01298887652774,
        "timestamp": "2025-12-26T14:28:46.399318+00:00",
        "meta_object_name": "STARLINK-35792",
        "meta_object_id": "2025-298T",
        "meta_epoch": "2025-12-26T06:00:02.999808",
        "meta_mean_motion": 15.76943314,
        "meta_eccentricity": 0.00036281,
        "meta_inclination": 69.9967,
        "meta_ra_of_asc_node": 211.519,
        "meta_arg_of_pericenter": 270.7763,
        "meta_mean_anomaly": 339.3429,
        "meta_ephemeris_type": 0,
        "meta_classification_type": "U",
        "meta_norad_cat_id": 67092,
        "meta_element_set_no": 999,
        "meta_rev_at_epoch": 309,
        "meta_bstar": -0.012438053,
        "meta_mean_motion_dot": -0.01778051,
        "meta_mean_motion_ddot": 0,
        "tle_line1": "1 67092U 25298T   25360.25003472 -.01778051  00000+0 -12438-1 0  9998",
        "tle_line2": "2 67092  69.9967 211.5190 0003628 270.7763 339.3429 15.76943314  3090"
      },
      "geometry": {
        "type": "Point",
        "coordinates": [
          -47.38252345695062,
          69.5656000865545
        ]
      }
    },
    {
      "type": "Feature",
      "properties": {
        "norad_id": 67093,
        "name": "STARLINK-35784",
        "group": "last-30-days",
        "lat": 69.09166080251488,
        "lon": -41.96268752397775,
        "alt_km": 338.0592289774031,
        "timestamp": "2025-12-26T14:28:46.399330+00:00",
        "meta_object_name": "STARLINK-35784",
        "meta_object_id": "2025-298U",
        "meta_epoch": "2025-12-26T06:00:02.999808",
        "meta_mean_motion": 15.76944413,
        "meta_eccentricity": 0.00036528,
        "meta_inclination": 69.9967,
        "meta_ra_of_asc_node": 211.5164,
        "meta_arg_of_pericenter": 268.8037,
        "meta_mean_anomaly": 343.2873,
        "meta_ephemeris_type": 0,
        "meta_classification_type": "U",
        "meta_norad_cat_id": 67093,
        "meta_element_set_no": 999,
        "meta_rev_at_epoch": 314,
        "meta_bstar": -0.012476742,
        "meta_mean_motion_dot": -0.01783017,
        "meta_mean_motion_ddot": 0,
        "tle_line1": "1 67093U 25298U   25360.25003472 -.01783017  00000+0 -12477-1 0  9990",
        "tle_line2": "2 67093  69.9967 211.5164 0003652 268.8037 343.2873 15.76944413  3145"
      },
      "geometry": {
        "type": "Point",
        "coordinates": [
          -41.96268752397775,
          69.09166080251488
        ]
      }
    },
    {
      "type": "Feature",
      "properties": {
        "norad_id": 67094,
        "name": "STARLINK-36202",
        "group": "last-30-days",
        "lat": 68.40080442830066,
        "lon": -36.43751616824157,
        "alt_km": 338.19347671829837,
        "timestamp": "2025-12-26T14:28:46.399341+00:00",
        "meta_object_name": "STARLINK-36202",
        "meta_object_id": "2025-298V",
        "meta_epoch": "2025-12-26T06:00:02.999808",
        "meta_mean_motion": 15.76932958,
        "meta_eccentricity": 0.0003716,
        "meta_inclination": 69.9967,
        "meta_ra_of_asc_node": 211.514,
        "meta_arg_of_pericenter": 271.7885,
        "meta_mean_anomaly": 342.4292,
        "meta_ephemeris_type": 0,
        "meta_classification_type": "U",
        "meta_norad_cat_id": 67094,
        "meta_element_set_no": 999,
        "meta_rev_at_epoch": 314,
        "meta_bstar": -0.012457267,
        "meta_mean_motion_dot": -0.01779835,
        "meta_mean_motion_ddot": 0,
        "tle_line1": "1 67094U 25298V   25360.25003472 -.01779835  00000+0 -12457-1 0  9992",
        "tle_line2": "2 67094  69.9967 211.5140 0003716 271.7885 342.4292 15.76932958  3142"
      },
      "geometry": {
        "type": "Point",
        "coordinates": [
          -36.43751616824157,
          68.40080442830066
        ]
      }
    },
    {
      "type": "Feature",
      "properties": {
        "norad_id": 67095,
        "name": "STARLINK-36227",
        "group": "last-30-days",
        "lat": 67.58016150108789,
        "lon": -31.497768847077296,
        "alt_km": 338.242267541671,
        "timestamp": "2025-12-26T14:28:46.399353+00:00",
        "meta_object_name": "STARLINK-36227",
        "meta_object_id": "2025-298W",
        "meta_epoch": "2025-12-26T06:00:02.999808",
        "meta_mean_motion": 15.76930871,
        "meta_eccentricity": 0.00036775,
        "meta_inclination": 69.9965,
        "meta_ra_of_asc_node": 211.5113,
        "meta_arg_of_pericenter": 272.1447,
        "meta_mean_anomaly": 344.0997,
        "meta_ephemeris_type": 0,
        "meta_classification_type": "U",
        "meta_norad_cat_id": 67095,
        "meta_element_set_no": 999,
        "meta_rev_at_epoch": 309,
        "meta_bstar": -0.012481356,
        "meta_mean_motion_dot": -0.01782675,
        "meta_mean_motion_ddot": 0,
        "tle_line1": "1 67095U 25298W   25360.25003472 -.01782675  00000+0 -12481-1 0  9996",
        "tle_line2": "2 67095  69.9965 211.5113 0003677 272.1447 344.0997 15.76930871  3092"
      },
      "geometry": {
        "type": "Point",
        "coordinates": [
          -31.497768847077296,
          67.58016150108789
        ]
      }
    }
  ]
}